NORAD_CAT_ID,OBJECT_NAME,OBJECT_TYPE,EPOCH,MEAN_MOTION,ECCENTRICITY,INCLINATION,RA_OF_ASC_NODE,ARG_OF_PERICENTER,MEAN_ANOMALY,BSTAR,MEAN_MOTION_DOT,MEAN_MOTION_DDOT,TLE_LINE0,TLE_LINE1,TLE_LINE2,SEMIMAJOR_AXIS,PERIOD,APOGEE,PERIGEE,DECAYED
53918.0,STARLINK-5012,PAYLOAD,2024-08-11 20:11:42,15.08856073,0.0002125,53.2162,14.6226,87.2326,272.891,0.00040069,6.097e-05,0.0,0 STARLINK-5012,1 53918U 22119AJ  24224.84146749  .00006097  00000-0  40069-3 0  9992,2 53918  53.2162  14.6226 0002125  87.2326 272.8910 15.08856073104621,6917.831,95.437,541.166,538.226,0.0
53918.0,STARLINK-5012,PAYLOAD,2024-08-12 02:33:15,15.08842325,0.0001937,53.2169,13.4257,70.4945,289.6256,8.9196e-05,1.132e-05,0.0,0 STARLINK-5012,1 53918U 22119AJ  24225.10642540  .00001132  00000-0  89196-4 0  9992,2 53918  53.2169  13.4257 0001937  70.4945 289.6256 15.08842325104668,6917.873,95.437,541.078,538.398,0.0
53918.0,STARLINK-5012,PAYLOAD,2024-08-12 08:54:48,15.08838977,0.0002174,53.2179,12.2381,81.945,278.1788,-5.6265e-05,-1.184e-05,0.0,0 STARLINK-5012,1 53918U 22119AJ  24225.37139064 -.00001184  00000-0 -56265-4 0  9993,2 53918  53.2179  12.2381 0002174  81.9450 278.1788 15.08838977105129,6917.884,95.438,541.252,538.245,0.0
53918.0,STARLINK-5012,PAYLOAD,2024-08-12 16:51:42,15.0888904,0.0003841,53.2186,10.7539,96.6091,263.5338,0.00098111,0.00015383,0.0,0 STARLINK-5012,1 53918U 22119AJ  24225.70257605  .00015383  00000-0  98111-3 0  9991,2 53918  53.2186  10.7539 0003841  96.6091 263.5338 15.08889040104755,6917.73,95.434,542.253,536.938,0.0
53918.0,STARLINK-5012,PAYLOAD,2024-08-13 02:24:01,15.08852102,0.0002936,53.2179,8.9691,87.3472,272.7857,0.00038535,5.852e-05,0.0,0 STARLINK-5012,1 53918U 22119AJ  24226.10002298  .00005852  00000-0  38535-3 0  9996,2 53918  53.2179   8.9691 0002936  87.3472 272.7857 15.08852102104813,6917.843,95.437,541.739,537.677,0.0
53918.0,STARLINK-5012,PAYLOAD,2024-08-13 10:20:57,15.08817163,0.0001234,53.2085,7.4819,98.8683,261.2449,-0.000871,-0.00014114,0.0,0 STARLINK-5012,1 53918U 22119AJ  24226.43122544 -.00014114  00000-0 -87100-3 0  9994,2 53918  53.2085   7.4819 0001234  98.8683 261.2449 15.08817163104869,6917.95,95.439,540.669,538.962,0.0
53918.0,STARLINK-5012,PAYLOAD,2024-08-13 18:17:53,15.08829087,0.0002041,53.2189,5.9989,114.9989,245.1215,-0.00032625,-5.475e-05,0.0,0 STARLINK-5012,1 53918U 22119AJ  24226.76242666 -.00005475  00000-0 -32625-3 0  9990,2 53918  53.2189   5.9989 0002041 114.9989 245.1215 15.08829087104917,6917.914,95.438,541.191,538.367,0.0
53918.0,STARLINK-5012,PAYLOAD,2024-08-14 13:22:32,15.08824273,0.0001746,53.2206,2.4323,113.1098,247.0079,0.00025054,3.7e-05,0.0,0 STARLINK-5012,1 53918U 22119AJ  24227.55731773  .00003700  00000-0  25054-3 0  9995,2 53918  53.2206   2.4323 0001746 113.1098 247.0079 15.08824273105455,6917.928,95.439,541.001,538.586,0.0
53918.0,STARLINK-5012,PAYLOAD,2024-08-14 16:33:18,15.08830569,0.0001552,53.2177,1.8351,99.4186,260.6981,0.00043914,6.706e-05,0.0,0 STARLINK-5012,1 53918U 22119AJ  24227.68979797  .00006706  00000-0  43914-3 0  9993,2 53918  53.2177   1.8351 0001552  99.4186 260.6981 15.08830569105475,6917.909,95.438,540.848,538.701,0.0
53918.0,STARLINK-5012,PAYLOAD,2024-08-15 14:48:42,15.08841048,0.0001648,53.2174,357.6721,98.3804,261.7375,0.00040748,6.203e-05,0.0,0 STARLINK-5012,1 53918U 22119AJ  24228.61716112  .00006203  00000-0  40748-3 0  9991,2 53918  53.2174 357.6721 0001648  98.3804 261.7375 15.08841048105615,6917.877,95.437,540.882,538.602,0.0
53918.0,STARLINK-5012,PAYLOAD,2024-08-16 01:56:24,15.0883678,0.0001457,53.2164,355.5877,90.1596,269.9564,0.00012455,1.695e-05,0.0,0 STARLINK-5012,1 53918U 22119AJ  24229.08084242  .00001695  00000-0  12455-3 0  9999,2 53918  53.2164 355.5877 0001457  90.1596 269.9564 15.08836780105267,6917.89,95.438,540.763,538.747,0.0
53918.0,STARLINK-5012,PAYLOAD,2024-08-17 08:08:44,15.08840029,0.0001525,53.216,349.9386,88.2359,271.8808,0.00022432,3.284e-05,0.0,0 STARLINK-5012,1 53918U 22119AJ  24230.33940718  .00003284  00000-0  22432-3 0  9990,2 53918  53.2160 349.9386 0001525  88.2359 271.8808 15.08840029105451,6917.88,95.438,540.8,538.69,0.0
53918.0,STARLINK-5012,PAYLOAD,2024-08-18 12:45:40,15.08855784,0.0001511,53.218,344.5858,87.4681,272.6484,0.00036247,5.488e-05,0.0,0 STARLINK-5012,1 53918U 22119AJ  24231.53171874  .00005488  00000-0  36247-3 0  9999,2 53918  53.2180 344.5858 0001511  87.4681 272.6484 15.08855784105635,6917.832,95.437,540.742,538.652,0.0
53918.0,STARLINK-5012,PAYLOAD,2024-08-18 17:31:50,15.08821283,0.0001284,53.218,343.6943,74.794,285.3194,0.0022551,0.00035766,0.0,0 STARLINK-5012,1 53918U 22119AJ  24231.73044724  .00035766  00000-0  22551-2 0  9998,2 53918  53.2180 343.6943 0001284  74.7940 285.3194 15.08821283105663,6917.938,95.439,540.691,538.914,0.0
53918.0,STARLINK-5012,PAYLOAD,2024-08-19 14:11:50,15.08843261,0.0002126,53.219,339.8281,98.1252,261.9981,-1.0186e-05,-4.5e-06,0.0,0 STARLINK-5012,1 53918U 22119AJ  24232.59155947 -.00000450  00000-0 -10186-4 0  9990,2 53918  53.2190 339.8281 0002126  98.1252 261.9981 15.08843261106214,6917.87,95.437,541.206,538.265,0.0
53918.0,STARLINK-5012,PAYLOAD,2024-08-19 17:22:37,15.08839382,0.0001623,53.2185,339.2348,105.0579,255.0593,-4.7815e-05,-1.049e-05,0.0,0 STARLINK-5012,1 53918U 22119AJ  24232.72404013 -.00001049  00000-0 -47815-4 0  9990,2 53918  53.2185 339.2348 0001623 105.0579 255.0593 15.08839382105814,6917.882,95.438,540.87,538.625,0.0
53918.0,STARLINK-5012,PAYLOAD,2024-08-20 12:27:14,15.08849208,0.0001485,53.218,335.6666,100.4331,259.6829,0.00012152,1.647e-05,0.0,0 STARLINK-5012,1 53918U 22119AJ  24233.51891667  .00001647  00000-0  12152-3 0  9990,2 53918  53.2180 335.6666 0001485 100.4331 259.6829 15.08849208106353,6917.852,95.437,540.745,538.69,0.0
53918.0,STARLINK-5012,PAYLOAD,2024-08-21 12:18:02,15.08832739,0.0001417,53.2168,331.2057,96.7648,263.3506,8.7305e-05,1.102e-05,0.0,0 STARLINK-5012,1 53918U 22119AJ  24234.51252923  .00001102  00000-0  87305-4 0  9996,2 53918  53.2168 331.2057 0001417  96.7648 263.3506 15.08832739106083,6917.903,95.438,540.748,538.787,0.0
53918.0,STARLINK-5012,PAYLOAD,2024-08-21 13:53:25,15.08831281,0.0001267,53.2164,330.9094,92.4434,267.6703,6.6117e-05,7.64e-06,0.0,0 STARLINK-5012,1 53918U 22119AJ  24234.57877009  .00000764  00000-0  66117-4 0  9991,2 53918  53.2164 330.9094 0001267  92.4434 267.6703 15.08831281106510,6917.907,95.438,540.649,538.896,0.0
53918.0,STARLINK-5012,PAYLOAD,2024-08-21 15:28:48,15.0883112,0.0001235,53.216,330.6105,96.3754,263.7378,5.6879e-05,6.17e-06,0.0,0 STARLINK-5012,1 53918U 22119AJ  24234.64501035  .00000617  00000-0  56879-4 0  9993,2 53918  53.2160 330.6105 0001235  96.3754 263.7378 15.08831120106527,6917.908,95.438,540.627,538.918,0.0
